SCD 1                   
1 22490U 93009B   26169.48694493  .00000320  00000+0  36453-4 0  9998
2 22490  24.9677 199.5517 0042029 151.4186 327.4321 14.46119178761305
TECHSAT 1B (GO-32)      
1 25397U 98043D   26169.46924976  .00000037  00000+0  36201-4 0  9996
2 25397  99.0067 162.2602 0001130 160.0022 200.1201 14.24428629451518
SCD 2                   
1 25504U 98060A   26169.42745354  .00000351  00000+0  47190-4 0  9990
2 25504  24.9958  64.5084 0016903 135.8400  25.0219 14.45526320460508
DLR-TUBSAT              
1 25757U 99029B   26169.46456489  .00000048  00000+0  23789-4 0  9999
2 25757  98.6695 165.0107 0013963 351.3290   8.7662 14.52427114433433
TERRA                   
1 25994U 99068A   26169.60999120  .00000312  00000+0  72493-4 0  9995
2 25994  97.9456 219.0999 0001694 184.5927 327.8653 14.61104174409811
MAROC-TUBSAT            
1 27004U 01056D   26169.45574817 -.00000040  00000+0  79367-5 0  9991
2 27004  99.8082 346.3391 0020366 138.0935 250.4408 13.70262475226365
AQUA                    
1 27424U 02022A   26169.56023122  .00000606  00000+0  13021-3 0  9991
2 27424  98.4277 138.8704 0001051  53.8531  10.2072 14.62159941283479
SHIYAN-1 (SY-1)         
1 28220U 04012A   26169.48841844  .00010989  00000+0  33870-3 0  9996
2 28220  97.8688 247.6415 0005466  28.4055 331.7483 15.33788244211295
AURA                    
1 28376U 04026A   26169.56094313  .00000604  00000+0  13196-3 0  9995
2 28376  98.3417 126.0256 0001201  76.1764 283.9570 14.61330873166415
IRS-P5 (CARTOSAT-1)     
1 28649U 05017A   26169.01781702  .00001198  00000+0  12634-3 0  9999
2 28649  97.5307 192.0446 0002554  78.8638 281.2868 14.91051440143949
SINAH 1                 
1 28893U 05043D   26169.62596145  .00000236  00000+0  54206-4 0  9995
2 28893  98.2863 303.9564 0013127 271.8287  88.1412 14.64158439100737
RESURS-DK 1             
1 29228U 06021A   26169.62183633  .00001670  00000+0  99851-4 0  9997
2 29228  69.9330 335.8394 0006885 291.4308  68.6124 15.13222982102795
ARIRANG-2 (KOMPSAT-2)   
1 29268U 06031A   26169.66129813  .00000210  00000+0  47829-4 0  9993
2 29268  97.8302 354.0359 0015885  70.3752   1.9255 14.64661001 61691
LAPAN-TUBSAT            
1 29709U 07001A   26169.60111197 -.00000087  00000+0 -33441-5 0  9991
2 29709  98.1337 168.8570 0011978 174.7713 185.3629 14.85949049 51363
HAIYANG-1B              
1 31113U 07010A   26169.40337051  .00000073  00000+0  43731-4 0  9995
2 31113  98.3495 151.2014 0013089 192.6283 167.4575 14.31027209   818
COSMO-SKYMED 1          
1 31598U 07023A   26169.60542669  .00002250  00000+0  20026-3 0  9991
2 31598  97.8849   1.4729 0001401  98.4079 261.7301 14.97105553 30002
TERRASAR-X              
1 31698U 07026A   26168.58693640  .00000280  00000+0  16539-4 0  9993
2 31698  97.4452 176.2866 0001560  90.2646 269.8767 15.19150392 53284
WORLDVIEW-1 (WV-1)      
1 32060U 07041A   26169.60501236  .00004832  00000+0  20076-3 0  9994
2 32060  97.3882 289.3281 0002103  17.1400 342.9908 15.24279547 43099
YAOGAN-3                
1 32289U 07055A   26169.60399631  .00000946  00000+0  10190-3 0  9994
2 32289  97.8146 199.4677 0001832  78.9839 281.1585 14.90784088  6085
COSMO-SKYMED 2          
1 32376U 07059A   26169.64627773  .00000293  00000+0  43410-4 0  9997
2 32376  97.8886 353.2230 0001351  87.8897 272.2471 14.82156051  2228
RADARSAT-2              
1 32382U 07061A   26169.57717218  .00000115  00000+0  61410-4 0  9996
2 32382  98.5772 176.4901 0001295  84.2909 275.8421 14.29982353966157
CARTOSAT-2A             
1 32783U 08021A   26169.60232701  .00000352  00000+0  54021-4 0  9994
2 32783  97.7628 218.2628 0013197 104.5637 255.7040 14.79240260979014
HUANJING 1A (HJ-1A)     
1 33320U 08041A   26169.58230432  .00001066  00000+0  13377-3 0  9991
2 33320  97.6680 155.3669 0020051 130.4239 229.8729 14.83988639958611
HUANJING 1B (HJ-1B)     
1 33321U 08041B   26169.61946704  .00000441  00000+0  59597-4 0  9993
2 33321  97.6518 158.5701 0036145 176.1564 183.9935 14.83318738958620
GEOEYE 1                
1 33331U 08042A   26169.58648039  .00000359  00000+0  76284-4 0  9991
2 33331  98.1236 243.5000 0005357  66.3097 293.8668 14.64726887950356
THEOS                   
1 33396U 08049A   26169.58934439  .00000073  00000+0  54299-4 0  9996
2 33396  98.5566 226.8279 0001224  78.7958 281.3356 14.20133386918168
COSMO-SKYMED 3          
1 33412U 08054A   26169.60396749  .00002981  00000+0  20336-3 0  9994
2 33412  97.8280  28.1974 0014037 261.4920  98.4716 15.06961548957156
YAOGAN-4                
1 33446U 08061A   26169.31396732  .00000783  00000+0  10232-3 0  9991
2 33446  97.9308 102.8160 0015684  69.0904 291.1987 14.83201968945836
GOSAT (IBUKI)           
1 33492U 09002A   26169.57018171  .00000875  00000+0  16271-3 0  9995
2 33492  98.0892 280.6341 0001567  85.3924 274.7460 14.67540830931666
DEIMOS-1                
1 35681U 09041A   26169.61073801  .00000627  00000+0  99817-4 0  9999
2 35681  97.7403 326.7761 0001714 129.2132 230.9231 14.75239344907097
